{
  "norad_id": 58601,
  "name": "STARLINK-31074",
  "history": [
    {
      "epoch": "2026-03-28T09:23:52.613088",
      "apogee_km": 484.19986042598066,
      "perigee_km": 481.9319584162995,
      "latitude_deg": -22.790836721730894,
      "longitude_deg": 77.69179231999442,
      "semi_major_axis_km": 6861.202909421139,
      "eccentricity": 0.00016527,
      "inclination_deg": 43.0041,
      "raan_deg": 63.0155,
      "arg_perigee_deg": 274.1756,
      "mean_anomaly_deg": 85.8907,
      "mean_motion_rev_day": 15.27574385
    }
  ]
}