{"fetched_at":"2026-03-30T06:02:59Z","count":15439,"tles":[{"name":"STARLINK-31074","line1":"1 58601U 23200N   26087.39158117  .00003475  00000+0  13577-3 0  9999","line2":"2 58601  43.0041  63.0155 0001652 274.1756  85.8907 15.27574385126474","category":"Starlink"}]}